[{"OBJECT_NAME":"STARLINK-36284","OBJECT_ID":"2025-304C","EPOCH":"2026-03-09T15:11:57.329088","MEAN_MOTION":14.9833156,"ECCENTRICITY":0.0003871,"INCLINATION":70.0027,"RA_OF_ASC_NODE":174.7092,"ARG_OF_PERICENTER":265.9749,"MEAN_ANOMALY":94.0967,"EPHEMERIS_TYPE":0,"CLASSIFICATION_TYPE":"U","NORAD_CAT_ID":67194,"ELEMENT_SET_NO":999,"REV_AT_EPOCH":1387,"BSTAR":0.0014763,"MEAN_MOTION_DOT":0.00017567,"MEAN_MOTION_DDOT":0},{"OBJECT_NAME":"FENGYUN 1C DEB","OBJECT_ID":"1999-025DQF","EPOCH":"2026-03-09T11:13:08.013504","MEAN_MOTION":14.90370931,"ECCENTRICITY":0.01269339,"INCLINATION":98.9808,"RA_OF_ASC_NODE":67.5909,"ARG_OF_PERICENTER":49.019,"MEAN_ANOMALY":312.1923,"EPHEMERIS_TYPE":0,"CLASSIFICATION_TYPE":"U","NORAD_CAT_ID":35223,"ELEMENT_SET_NO":999,"REV_AT_EPOCH":95173,"BSTAR":0.00097388848,"MEAN_MOTION_DOT":0.00010982,"MEAN_MOTION_DDOT":0}]
